GLOBALSTAR M023         
1 25621U 99004A   26016.54792466 -.00000054  00000+0  27682-3 0  9993
2 25621  52.0102 123.7468 0009429 235.4496 137.0513 12.62514018242688
GLOBALSTAR M040         
1 25622U 99004B   26016.60600583 -.00000133  00000+0 -16656-3 0  9997
2 25622  51.9922 128.0380 0001768 127.6468 246.0991 12.62026562242208
GLOBALSTAR M036         
1 25623U 99004C   26016.51837027 -.00000058  00000+0  36181-3 0  9993
2 25623  51.9984  38.0147 0010820 100.1128  58.5663 11.86616690204309
GLOBALSTAR M038         
1 25624U 99004D   26016.45115529 -.00000083  00000+0  10000-3 0  9993
2 25624  51.9951 177.3884 0002810 122.4562 268.1310 12.32539301228677
GLOBALSTAR M022         
1 25649U 99012A   26016.43711816 -.00000059  00000+0  33971-3 0  9993
2 25649  52.0047  71.1857 0002654 221.5153 152.0881 12.02508689202034
GLOBALSTAR M041         
1 25650U 99012B   26016.29452897 -.00000057  00000+0  36050-3 0  9999
2 25650  52.0044 319.5235 0001714  32.9979 327.0964 11.96682875203790
GLOBALSTAR M046         
1 25651U 99012C   26016.34244568 -.00000073  00000+0  17403-3 0  9999
2 25651  52.0078  13.7966 0001820 323.7179 173.3864 12.09418770209459
GLOBALSTAR M037         
1 25652U 99012D   26016.41234373 -.00000074  00000+0  16767-3 0  9994
2 25652  51.9990 254.7005 0001526 329.3818 201.5131 12.62459203238208
